[
  {
    "OBJECT_NAME": "METEOSAT-10 (MSG-3)",
    "OBJECT_ID": "2012-035B",
    "EPOCH": "2025-06-07T07:05:47.137344",
    "MEAN_MOTION": 1.00274306,
    "ECCENTRICITY": 8.37e-05,
    "INCLINATION": 3.7856,
    "RA_OF_ASC_NODE": 62.0755,
    "ARG_OF_PERICENTER": 24.2695,
    "MEAN_ANOMALY": 276.1041,
    "EPHEMERIS_TYPE": 0,
    "CLASSIFICATION_TYPE": "U",
    "NORAD_CAT_ID": 38552,
    "ELEMENT_SET_NO": 999,
    "REV_AT_EPOCH": 4709,
    "BSTAR": 0,
    "MEAN_MOTION_DOT": 9e-08,
    "MEAN_MOTION_DDOT": 0
  },
  {
    "OBJECT_NAME": "METOP-B",
    "OBJECT_ID": "2012-049A",
    "EPOCH": "2025-06-07T20:22:04.004544",
    "MEAN_MOTION": 14.21502672,
    "ECCENTRICITY": 0.0001471,
    "INCLINATION": 98.5769,
    "RA_OF_ASC_NODE": 213.1148,
    "ARG_OF_PERICENTER": 63.782,
    "MEAN_ANOMALY": 296.3508,
    "EPHEMERIS_TYPE": 0,
    "CLASSIFICATION_TYPE": "U",
    "NORAD_CAT_ID": 38771,
    "ELEMENT_SET_NO": 999,
    "REV_AT_EPOCH": 66007,
    "BSTAR": 6.6255e-05,
    "MEAN_MOTION_DOT": 1.02e-06,
    "MEAN_MOTION_DDOT": 0
  },
  {
    "OBJECT_NAME": "INSAT-3D",
    "OBJECT_ID": "2013-038B",
    "EPOCH": "2025-06-07T14:42:42.736032",
    "MEAN_MOTION": 1.00276327,
    "ECCENTRICITY": 0.0001529,
    "INCLINATION": 0.9583,
    "RA_OF_ASC_NODE": 87.6454,
    "ARG_OF_PERICENTER": 342.0447,
    "MEAN_ANOMALY": 176.723,
    "EPHEMERIS_TYPE": 0,
    "CLASSIFICATION_TYPE": "U",
    "NORAD_CAT_ID": 39216,
    "ELEMENT_SET_NO": 999,
    "REV_AT_EPOCH": 4332,
    "BSTAR": 0,
    "MEAN_MOTION_DOT": -3.22e-06,
    "MEAN_MOTION_DDOT": 0
  },
  {
    "OBJECT_NAME": "FENGYUN 3C",
    "OBJECT_ID": "2013-052A",
    "EPOCH": "2025-06-07T21:08:44.585376",
    "MEAN_MOTION": 14.15627014,
    "ECCENTRICITY": 0.0015243,
    "INCLINATION": 98.454,
    "RA_OF_ASC_NODE": 145.9528,
    "ARG_OF_PERICENTER": 25.5919,
    "MEAN_ANOMALY": 334.6007,
    "EPHEMERIS_TYPE": 0,
    "CLASSIFICATION_TYPE": "U",
    "NORAD_CAT_ID": 39260,
    "ELEMENT_SET_NO": 999,
    "REV_AT_EPOCH": 60567,
    "BSTAR": 6.2193e-05,
    "MEAN_MOTION_DOT": 8.1e-07,
    "MEAN_MOTION_DDOT": 0
  },
  {
    "OBJECT_NAME": "METEOR-M 2",
    "OBJECT_ID": "2014-037A",
    "EPOCH": "2025-06-07T20:39:03.522816",
    "MEAN_MOTION": 14.21298296,
    "ECCENTRICITY": 0.0006728,
    "INCLINATION": 98.4675,
    "RA_OF_ASC_NODE": 143.8773,
    "ARG_OF_PERICENTER": 51.9254,
    "MEAN_ANOMALY": 308.253,
    "EPHEMERIS_TYPE": 0,
    "CLASSIFICATION_TYPE": "U",
    "NORAD_CAT_ID": 40069,
    "ELEMENT_SET_NO": 999,
    "REV_AT_EPOCH": 56614,
    "BSTAR": 6.6825e-05,
    "MEAN_MOTION_DOT": 1.04e-06,
    "MEAN_MOTION_DDOT": 0
  },
  {
    "OBJECT_NAME": "HIMAWARI-8",
    "OBJECT_ID": "2014-060A",
    "EPOCH": "2025-06-07T21:32:18.841920",
    "MEAN_MOTION": 1.00271089,
    "ECCENTRICITY": 7.22e-05,
    "INCLINATION": 0.0456,
    "RA_OF_ASC_NODE": 117.8683,
    "ARG_OF_PERICENTER": 38.7115,
    "MEAN_ANOMALY": 203.6869,
    "EPHEMERIS_TYPE": 0,
    "CLASSIFICATION_TYPE": "U",
    "NORAD_CAT_ID": 40267,
    "ELEMENT_SET_NO": 999,
    "REV_AT_EPOCH": 3911,
    "BSTAR": 0,
    "MEAN_MOTION_DOT": -2.57e-06,
    "MEAN_MOTION_DDOT": 0
  },
  {
    "OBJECT_NAME": "FENGYUN 2G",
    "OBJECT_ID": "2014-090A",
    "EPOCH": "2025-06-07T14:28:28.915680",
    "MEAN_MOTION": 1.00278327,
    "ECCENTRICITY": 0.0003455,
    "INCLINATION": 4.691,
    "RA_OF_ASC_NODE": 77.3794,
    "ARG_OF_PERICENTER": 143.1717,
    "MEAN_ANOMALY": 352.3426,
    "EPHEMERIS_TYPE": 0,
    "CLASSIFICATION_TYPE": "U",
    "NORAD_CAT_ID": 40367,
    "ELEMENT_SET_NO": 999,
    "REV_AT_EPOCH": 3824,
    "BSTAR": 0,
    "MEAN_MOTION_DOT": -2.88e-06,
    "MEAN_MOTION_DDOT": 0
  },
  {
    "OBJECT_NAME": "METEOSAT-11 (MSG-4)",
    "OBJECT_ID": "2015-034A",
    "EPOCH": "2025-06-07T13:59:41.754624",
    "MEAN_MOTION": 1.00277455,
    "ECCENTRICITY": 9.74e-05,
    "INCLINATION": 2.2655,
    "RA_OF_ASC_NODE": 72.3659,
    "ARG_OF_PERICENTER": 293.0612,
    "MEAN_ANOMALY": 110.1224,
    "EPHEMERIS_TYPE": 0,
    "CLASSIFICATION_TYPE": "U",
    "NORAD_CAT_ID": 40732,
    "ELEMENT_SET_NO": 999,
    "REV_AT_EPOCH": 346,
    "BSTAR": 0,
    "MEAN_MOTION_DOT": 8e-07,
    "MEAN_MOTION_DDOT": 0
  },
  {
    "OBJECT_NAME": "ELEKTRO-L 2",
    "OBJECT_ID": "2015-074A",
    "EPOCH": "2025-06-05T02:58:38.618112",
    "MEAN_MOTION": 1.00270882,
    "ECCENTRICITY": 0.0001242,
    "INCLINATION": 5.7435,
    "RA_OF_ASC_NODE": 75.1776,
    "ARG_OF_PERICENTER": 228.8893,
    "MEAN_ANOMALY": 339.8473,
    "EPHEMERIS_TYPE": 0,
    "CLASSIFICATION_TYPE": "U",
    "NORAD_CAT_ID": 41105,
    "ELEMENT_SET_NO": 999,
    "REV_AT_EPOCH": 3473,
    "BSTAR": 0,
    "MEAN_MOTION_DOT": -1.09e-06,
    "MEAN_MOTION_DDOT": 0
  },
  {
    "OBJECT_NAME": "INSAT-3DR",
    "OBJECT_ID": "2016-054A",
    "EPOCH": "2025-06-07T15:26:20.299200",
    "MEAN_MOTION": 1.00271743,
    "ECCENTRICITY": 0.0009954,
    "INCLINATION": 0.078,
    "RA_OF_ASC_NODE": 95.9366,
    "ARG_OF_PERICENTER": 174.2659,
    "MEAN_ANOMALY": 291.665,
    "EPHEMERIS_TYPE": 0,
    "CLASSIFICATION_TYPE": "U",
    "NORAD_CAT_ID": 41752,
    "ELEMENT_SET_NO": 999,
    "REV_AT_EPOCH": 3206,
    "BSTAR": 0,
    "MEAN_MOTION_DOT": -6e-07,
    "MEAN_MOTION_DDOT": 0
  },
  {
    "OBJECT_NAME": "HIMAWARI-9",
    "OBJECT_ID": "2016-064A",
    "EPOCH": "2025-06-07T14:48:53.417952",
    "MEAN_MOTION": 1.00273748,
    "ECCENTRICITY": 0.0001294,
    "INCLINATION": 0.0435,
    "RA_OF_ASC_NODE": 133.2152,
    "ARG_OF_PERICENTER": 323.7903,
    "MEAN_ANOMALY": 162.2307,
    "EPHEMERIS_TYPE": 0,
    "CLASSIFICATION_TYPE": "U",
    "NORAD_CAT_ID": 41836,
    "ELEMENT_SET_NO": 999,
    "REV_AT_EPOCH": 3145,
    "BSTAR": 0,
    "MEAN_MOTION_DOT": -2.57e-06,
    "MEAN_MOTION_DDOT": 0
  },
  {
    "OBJECT_NAME": "GOES 16",
    "OBJECT_ID": "2016-071A",
    "EPOCH": "2025-06-04T11:46:59.189376",
    "MEAN_MOTION": 1.00125158,
    "ECCENTRICITY": 0.0001567,
    "INCLINATION": 0.0473,
    "RA_OF_ASC_NODE": 255.3205,
    "ARG_OF_PERICENTER": 231.8484,
    "MEAN_ANOMALY": 199.0469,
    "EPHEMERIS_TYPE": 0,
    "CLASSIFICATION_TYPE": "U",
    "NORAD_CAT_ID": 41866,
    "ELEMENT_SET_NO": 999,
    "REV_AT_EPOCH": 3131,
    "BSTAR": 0,
    "MEAN_MOTION_DOT": -6.9e-07,
    "MEAN_MOTION_DDOT": 0
  },
  {
    "OBJECT_NAME": "FENGYUN 4A",
    "OBJECT_ID": "2016-077A",
    "EPOCH": "2025-06-07T14:39:22.233600",
    "MEAN_MOTION": 1.00275372,
    "ECCENTRICITY": 0.0007089,
    "INCLINATION": 1.3682,
    "RA_OF_ASC_NODE": 84.3512,
    "ARG_OF_PERICENTER": 169.0869,
    "MEAN_ANOMALY": 346.3694,
    "EPHEMERIS_TYPE": 0,
    "CLASSIFICATION_TYPE": "U",
    "NORAD_CAT_ID": 41882,
    "ELEMENT_SET_NO": 999,
    "REV_AT_EPOCH": 3117,
    "BSTAR": 0,
    "MEAN_MOTION_DOT": -3.4e-06,
    "MEAN_MOTION_DDOT": 0
  },
  {
    "OBJECT_NAME": "CYGFM05",
    "OBJECT_ID": "2016-078A",
    "EPOCH": "2025-06-07T18:34:00.760224",
    "MEAN_MOTION": 15.4060427,
    "ECCENTRICITY": 0.0010647,
    "INCLINATION": 34.9597,
    "RA_OF_ASC_NODE": 187.2039,
    "ARG_OF_PERICENTER": 230.281,
    "MEAN_ANOMALY": 129.6971,
    "EPHEMERIS_TYPE": 0,
    "CLASSIFICATION_TYPE": "U",
    "NORAD_CAT_ID": 41884,
    "ELEMENT_SET_NO": 999,
    "REV_AT_EPOCH": 47080,
    "BSTAR": 0.00022554,
    "MEAN_MOTION_DOT": 9.429e-05,
    "MEAN_MOTION_DDOT": 0
  }
]