38552,METEOSAT-10 (MSG-3),2012,1436.06,2000.0,+,3.79,Active,1,GSO,French Guiana,EUMETSAT,Civil/Government,Earth Observation,Ariane,1 38552U 12035B   25158.29568446  .00000009  00000+0  00000+0 0  9996,2 38552   3.7856  62.0755 0000837  24.2695 276.1041  1.00274306 47099,1.00274306,8.37e-05,GSO
38771,METOP-B,2012,101.3,4085.0,+,98.58,Active,1,LEO,Kazakhstan,EUMETSAT,Civil/Government,Earth Observation,Soyuz,1 38771U 12049A   25158.84865746  .00000102  00000+0  66255-4 0  9991,2 38771  98.5769 213.1148 0001471  63.7820 296.3508 14.21502672660073,14.21502672,0.0001471,LEO
39216,INSAT-3D,2013,1436.03,2090.0,+,0.96,Active,1,GSO,French Guiana,India,Government,Earth Observation,Ariane,1 39216U 13038B   25158.61299463 -.00000322  00000+0  00000+0 0  9993,2 39216   0.9583  87.6454 0001529 342.0447 176.7230  1.00276327 43329,1.00276327,0.0001529,GEO
39260,FENGYUN 3C,2013,101.72,2300.0,+,98.45,Active,1,LEO,PRC,China,Government,Earth Observation,Long March,1 39260U 13052A   25158.88107159  .00000081  00000+0  62193-4 0  9994,2 39260  98.4540 145.9528 0015243  25.5919 334.6007 14.15627014605670,14.15627014,0.0015243,LEO
40069,METEOR-M 2,2014,101.32,2778.0,P,98.47,Active,1,LEO,Kazakhstan,Russia/USSR,Government,Earth Observation,Soyuz,1 40069U 14037A   25158.86045744  .00000104  00000+0  66825-4 0  9998,2 40069  98.4675 143.8773 0006728  51.9254 308.2530 14.21298296566149,14.21298296,0.0006728,LEO
40267,HIMAWARI-8,2014,1436.1,3500.0,+,0.05,Active,1,GSO,Japan,Japan,Government,Earth Observation,H2A,1 40267U 14060A   25158.89744030 -.00000257  00000+0  00000+0 0  9999,2 40267   0.0456 117.8683 0000722  38.7115 203.6869  1.00271089 39112,1.00271089,7.22e-05,GEO
40367,FENGYUN 2G,2014,1436.0,1390.0,+,4.69,Active,1,GSO,PRC,China,Government,Earth Observation,Long March,1 40367U 14090A   25158.60311245 -.00000288  00000+0  00000+0 0  9994,2 40367   4.6910  77.3794 0003455 143.1717 352.3426  1.00278327 38242,1.00278327,0.0003455,GSO
40732,METEOSAT-11 (MSG-4),2015,1436.02,2000.0,+,2.27,Active,1,GSO,French Guiana,EUMETSAT,Civil/Government,Earth Observation,Ariane,1 40732U 15034A   25158.58312216  .00000080  00000+0  00000+0 0  9994,2 40732   2.2655  72.3659 0000974 293.0612 110.1224  1.00277455  3468,1.00277455,9.74e-05,GSO
41105,ELEKTRO-L 2,2015,1436.11,1800.0,+,5.74,Active,1,GSO,Kazakhstan,Russia/USSR,Government,Earth Observation,Zenit,1 41105U 15074A   25156.12405808 -.00000109  00000+0  00000+0 0  9994,2 41105   5.7435  75.1776 0001242 228.8893 339.8473  1.00270882 34731,1.00270882,0.0001242,GSO
41752,INSAT-3DR,2016,1436.1,2200.0,+,0.08,Active,1,GSO,India,India,Government,Earth Observation,GSLV,1 41752U 16054A   25158.64329050 -.00000060  00000+0  00000+0 0  9990,2 41752   0.0780  95.9366 0009954 174.2659 291.6650  1.00271743 32060,1.00271743,0.0009954,GEO
41836,HIMAWARI-9,2016,1436.07,3500.0,+,0.04,Active,1,GSO,Japan,Japan,Government,Earth Observation,H2A,1 41836U 16064A   25158.61728493 -.00000257  00000+0  00000+0 0  9993,2 41836   0.0435 133.2152 0001294 323.7903 162.2307  1.00273748 31452,1.00273748,0.0001294,GEO
41866,GOES 16,2016,1438.2,5192.0,+,0.05,Active,1,GSO,USA,USA,Government,Earth Observation,Atlas,1 41866U 16071A   25155.49096284 -.00000069  00000+0  00000+0 0  9994,2 41866   0.0473 255.3205 0001567 231.8484 199.0469  1.00125158 31311,1.00125158,0.0001567,GEO
41882,FENGYUN 4A,2016,1436.04,5300.0,+,1.37,Active,1,GSO,PRC,China,Government,Earth Observation,Long March,1 41882U 16077A   25158.61067400 -.00000340  00000+0  00000+0 0  9995,2 41882   1.3682  84.3512 0007089 169.0869 346.3694  1.00275372 31175,1.00275372,0.0007089,GSO
41884,CYGFM05,2016,93.47,29.0,X,34.96,Active,1,LEO,Eastern Range Airspace,USA,Government,Earth Observation,Pegasus,1 41884U 16078A   25158.77361991  .00009429  00000+0  22554-3 0  9995,2 41884  34.9597 187.2039 0010647 230.2810 129.6971 15.40604270470801,15.4060427,0.0010647,LEO
